NORAD_CAT_ID,OBJECT_NAME,OBJECT_TYPE,EPOCH,MEAN_MOTION,ECCENTRICITY,INCLINATION,RA_OF_ASC_NODE,ARG_OF_PERICENTER,MEAN_ANOMALY,BSTAR,MEAN_MOTION_DOT,MEAN_MOTION_DDOT,TLE_LINE0,TLE_LINE1,TLE_LINE2,SEMIMAJOR_AXIS,PERIOD,APOGEE,PERIGEE,DECAYED
51726.0,STARLINK-3527,PAYLOAD,2023-01-07 15:59:23,15.08825837,0.0002946,53.2156,113.2063,51.0873,309.0381,3.0242e-05,1.93e-06,0.0,0 STARLINK-3527,1 51726U 22016N   23007.66624747  .00000193  00000-0  30242-4 0  9994,2 51726  53.2156 113.2063 0002946  51.0873 309.0381 15.08825837 49954,6917.924,95.438,541.827,537.751,0.0
51726.0,STARLINK-3527,PAYLOAD,2023-01-08 06:17:51,15.08839646,0.0002429,53.2157,110.532,52.2519,307.8693,0.00014599,2.036e-05,0.0,0 STARLINK-3527,1 51726U 22016N   23008.26240144  .00002036  00000-0  14599-3 0  9990,2 51726  53.2157 110.5320 0002429  52.2519 307.8693 15.08839646 50044,6917.880999999999,95.438,541.427,538.066,0.0
51726.0,STARLINK-3527,PAYLOAD,2023-01-08 12:39:24,15.08848714,0.0002345,53.2157,109.3432,52.9254,307.1952,0.00080055,0.00012479,0.0,0 STARLINK-3527,1 51726U 22016N   23008.52736218  .00012479  00000-0  80055-3 0  9993,2 51726  53.2157 109.3432 0002345  52.9254 307.1952 15.08848714 49027,6917.854,95.437,541.341,538.097,0.0
51726.0,STARLINK-3527,PAYLOAD,2023-01-08 14:14:47,15.08854605,0.0002386,53.2152,109.0451,53.6092,306.512,0.0009986,0.00015647,0.0,0 STARLINK-3527,1 51726U 22016N   23008.59360146  .00015647  00000-0  99860-3 0  9997,2 51726  53.2152 109.0451 0002386  53.6092 306.5120 15.08854605 50098,6917.835999999998,95.437,541.351,538.05,0.0
51726.0,STARLINK-3527,PAYLOAD,2023-01-09 06:08:38,15.08849262,0.0003003,53.2168,106.0717,62.7185,297.4113,0.00030333,4.544e-05,0.0,0 STARLINK-3527,1 51726U 22016N   23009.25600158  .00004544  00000-0  30333-3 0  9995,2 51726  53.2168 106.0717 0003003  62.7185 297.4113 15.08849262 50192,6917.852,95.437,541.795,537.64,0.0
51726.0,STARLINK-3527,PAYLOAD,2023-01-09 09:19:24,15.08845243,0.0002504,53.2149,105.476,61.1765,298.9479,0.00016222,2.295e-05,0.0,0 STARLINK-3527,1 51726U 22016N   23009.38848071  .00002295  00000-0  16222-3 0  9999,2 51726  53.2149 105.4760 0002504  61.1765 298.9479 15.08845243 49154,6917.864000000001,95.437,541.462,537.997,0.0
51726.0,STARLINK-3527,PAYLOAD,2023-01-09 15:40:56,15.08854265,0.0002351,53.2151,104.2843,63.2357,296.8875,0.00039579,6.019e-05,0.0,0 STARLINK-3527,1 51726U 22016N   23009.65343709  .00006019  00000-0  39579-3 0  9995,2 51726  53.2151 104.2843 0002351  63.2357 296.8875 15.08854265 49191,6917.837,95.437,541.328,538.075,0.0
51726.0,STARLINK-3527,PAYLOAD,2023-01-10 09:10:11,15.08840219,0.0002184,53.2152,101.0151,64.0451,296.0766,2.7231e-05,1.45e-06,0.0,0 STARLINK-3527,1 51726U 22016N   23010.38207842  .00000145  00000-0  27231-4 0  9991,2 51726  53.2152 101.0151 0002184  64.0451 296.0766 15.08840219 50363,6917.88,95.438,541.256,538.234,0.0
51726.0,STARLINK-3527,PAYLOAD,2023-01-10 12:20:57,15.08848605,0.0002165,53.2153,100.4206,63.3878,296.7335,0.00018886,2.719e-05,0.0,0 STARLINK-3527,1 51726U 22016N   23010.51455693  .00002719  00000-0  18886-3 0  9999,2 51726  53.2153 100.4206 0002165  63.3878 296.7335 15.08848605 49322,6917.854,95.437,541.217,538.221,0.0
51726.0,STARLINK-3527,PAYLOAD,2023-01-11 12:11:44,15.08847447,0.0002058,53.2152,95.9585,67.7773,292.3438,0.00026045,3.86e-05,0.0,0 STARLINK-3527,1 51726U 22016N   23011.50815792  .00003860  00000-0  26045-3 0  9993,2 51726  53.2152  95.9585 0002058  67.7773 292.3438 15.08847447 50536,6917.858,95.437,541.146,538.299,0.0
51726.0,STARLINK-3527,PAYLOAD,2023-01-11 15:22:31,15.08848924,0.0002089,53.2153,95.364,68.2574,291.8641,0.00029446,4.402e-05,0.0,0 STARLINK-3527,1 51726U 22016N   23011.64063739  .00004402  00000-0  29446-3 0  9995,2 51726  53.2153  95.3640 0002089  68.2574 291.8641 15.08848924 49496,6917.853,95.437,541.163,538.273,0.0
51726.0,STARLINK-3527,PAYLOAD,2023-01-12 08:51:45,15.08838082,0.0002021,53.2147,92.0943,68.1329,291.9878,9.9328e-05,1.293e-05,0.0,0 STARLINK-3527,1 51726U 22016N   23012.36928218  .00001293  00000-0  99328-4 0  9999,2 51726  53.2147  92.0943 0002021  68.1329 291.9878 15.08838082 50660,6917.886,95.438,541.149,538.3530000000002,0.0
51726.0,STARLINK-3527,PAYLOAD,2023-01-12 21:34:50,15.08842028,0.000205,53.2151,89.7138,69.0299,291.0912,0.00012979,1.778e-05,0.0,0 STARLINK-3527,1 51726U 22016N   23012.89920009  .00001778  00000-0  12979-3 0  9991,2 51726  53.2151  89.7138 0002050  69.0299 291.0912 15.08842028 49687,6917.874,95.437,541.1569999999998,538.321,0.0
51726.0,STARLINK-3527,PAYLOAD,2023-01-13 13:28:41,15.08851705,0.0001786999999999,53.2154,86.7407,77.1903,282.9289,0.00019154,2.763e-05,0.0,0 STARLINK-3527,1 51726U 22016N   23013.56159424  .00002763  00000-0  19154-3 0  9998,2 51726  53.2154  86.7407 0001787  77.1903 282.9289 15.08851705 50842,6917.845,95.437,540.946,538.4730000000001,0.0
51726.0,STARLINK-3527,PAYLOAD,2023-01-13 21:25:38,15.08835012,0.0002168,53.2156,85.2522,74.2218,285.9013,1.3059000000000002e-05,-8e-07,0.0,0 STARLINK-3527,1 51726U 22016N   23013.89280507 -.00000080  00000-0  13059-4 0  9991,2 51726  53.2156  85.2522 0002168  74.2218 285.9013 15.08835012 49835,6917.896,95.438,541.26,538.261,0.0
51726.0,STARLINK-3527,PAYLOAD,2023-01-14 05:22:34,15.08830772,0.0001798,53.2142,83.7668,89.7888,270.331,-4.5413e-05,-1.011e-05,0.0,0 STARLINK-3527,1 51726U 22016N   23014.22400692 -.00001011  00000-0 -45413-4 0  9993,2 51726  53.2142  83.7668 0001798  89.7888 270.3310 15.08830772 50946,6917.909000000001,95.438,541.0169999999999,538.53,0.0
51726.0,STARLINK-3527,PAYLOAD,2023-01-14 14:54:52,15.08849946,0.0001761,53.2157,81.9828,90.4154,269.704,0.00022058,3.225e-05,0.0,0 STARLINK-3527,1 51726U 22016N   23014.62143701  .00003225  00000-0  22058-3 0  9998,2 51726  53.2157  81.9828 0001761  90.4154 269.7040 15.08849946 51008,6917.85,95.437,540.933,538.497,0.0
51726.0,STARLINK-3527,PAYLOAD,2023-01-14 21:16:25,15.08829843,0.0001999,53.2149,80.7906,82.9856,277.1364,1.4676e-05,-5.5e-07,0.0,0 STARLINK-3527,1 51726U 22016N   23014.88640884 -.00000055  00000-0  14676-4 0  9997,2 51726  53.2149  80.7906 0001999  82.9856 277.1364 15.08829843 51041,6917.911,95.438,541.159,538.394,0.0
51726.0,STARLINK-3527,PAYLOAD,2023-01-15 13:10:16,15.08848317,0.0001665999999999,53.2157,77.8197,98.0591,262.059,0.00010309,1.353e-05,0.0,0 STARLINK-3527,1 51726U 22016N   23015.54880073  .00001353  00000-0  10309-3 0  9996,2 51726  53.2157  77.8197 0001666  98.0591 262.0590 15.08848317 51146,6917.855,95.437,540.872,538.567,0.0
51726.0,STARLINK-3527,PAYLOAD,2023-01-15 21:07:12,15.08846905,0.0002018,53.2158,76.3331,90.5068,269.6155,0.00010601,1.4e-05,0.0,0 STARLINK-3527,1 51726U 22016N   23015.88000339  .00001400  00000-0  10601-3 0  9990,2 51726  53.2158  76.3331 0002018  90.5068 269.6155 15.08846905 50138,6917.859,95.437,541.12,538.328,0.0
51726.0,STARLINK-3527,PAYLOAD,2023-01-16 13:01:02,15.08868479,0.0001474,53.2161,73.3587,99.6976,260.4183,0.00035441,5.361e-05,0.0,0 STARLINK-3527,1 51726U 22016N   23016.54238746  .00005361  00000-0  35441-3 0  9998,2 51726  53.2161  73.3587 0001474  99.6976 260.4183 15.08868479 51293,6917.793000000001,95.436,540.678,538.639,0.0
51726.0,STARLINK-3527,PAYLOAD,2023-01-16 20:57:59,15.08835471,0.0002363,53.2164,71.8725,83.6732,276.4529,-0.00010568,-1.97e-05,0.0,0 STARLINK-3527,1 51726U 22016N   23016.87360754 -.00001970  00000-0 -10568-3 0  9996,2 51726  53.2164  71.8725 0002363  83.6732 276.4529 15.08835471 51347,6917.894,95.438,541.394,538.125,0.0
51726.0,STARLINK-3527,PAYLOAD,2023-01-17 09:41:05,15.08826599,0.0001386999999999,53.2166,69.4913,97.5006,262.6143,-4.4384e-05,-9.94e-06,0.0,0 STARLINK-3527,1 51726U 22016N   23017.40353227 -.00000994  00000-0 -44384-4 0  9992,2 51726  53.2166  69.4913 0001387  97.5006 262.6143 15.08826599 50365,6917.920999999999,95.438,540.746,538.827,0.0
51726.0,STARLINK-3527,PAYLOAD,2023-01-18 09:31:51,15.08851747,0.0001401,53.2152,65.0342,88.1503,271.965,0.00043335,6.618e-05,0.0,0 STARLINK-3527,1 51726U 22016N   23018.39712591  .00006618  00000-0  43335-3 0  9995,2 51726  53.2152  65.0342 0001401  88.1503 271.9650 15.08851747 51576,6917.844,95.437,540.679,538.74,0.0
51726.0,STARLINK-3527,PAYLOAD,2023-01-19 04:36:29,15.08847409,0.0001393,53.2158,61.4655,79.1172,280.9977,0.00040276,6.129e-05,0.0,0 STARLINK-3527,1 51726U 22016N   23019.19200639  .00006129  00000-0  40276-3 0  9997,2 51726  53.2158  61.4655 0001393  79.1172 280.9977 15.08847409 51696,6917.858,95.437,540.686,538.759,0.0
51726.0,STARLINK-3527,PAYLOAD,2023-01-19 09:22:38,15.08851404,0.0001371,53.2154,60.5737,89.9083,270.2066,0.00044932,6.872e-05,0.0,0 STARLINK-3527,1 51726U 22016N   23019.39072245  .00006872  00000-0  44932-3 0  9997,2 51726  53.2154  60.5737 0001371  89.9083 270.2066 15.08851404 50666,6917.846,95.437,540.659,538.762,0.0
51726.0,STARLINK-3527,PAYLOAD,2023-01-19 23:41:06,15.08844354,0.0001437,53.2156,57.8975,90.9507,269.165,2.4336e-05,9.9e-07,0.0,0 STARLINK-3527,1 51726U 22016N   23019.98688370  .00000099  00000-0  24336-4 0  9996,2 51726  53.2156  57.8975 0001437  90.9507 269.1650 15.08844354 51817,6917.866999999999,95.437,540.726,538.738,0.0
51726.0,STARLINK-3527,PAYLOAD,2023-01-20 10:48:48,15.08839149,0.0001476999999999,53.2156,55.8154,83.5072,276.6089,-3.4979e-05,-8.45e-06,0.0,0 STARLINK-3527,1 51726U 22016N   23020.45056700 -.00000845  00000-0 -34979-4 0  9991,2 51726  53.2156  55.8154 0001477  83.5072 276.6089 15.08839149 50828,6917.883000000001,95.438,540.77,538.726,0.0
51726.0,STARLINK-3527,PAYLOAD,2023-01-21 05:53:26,15.08841271,0.0001496999999999,53.2154,52.2469,93.8374,266.2789,0.00017859,2.556e-05,0.0,0 STARLINK-3527,1 51726U 22016N   23021.24544916  .00002556  00000-0  17859-3 0  9996,2 51726  53.2154  52.2469 0001497  93.8374 266.2789 15.08841271 52000,6917.877,95.437,540.7769999999999,538.706,0.0
